[{"OBJECT_NAME":"STARLINK-35387","OBJECT_ID":"2025-224AD","EPOCH":"2026-03-09T23:24:46.997280","MEAN_MOTION":15.30207114,"ECCENTRICITY":0.00010117,"INCLINATION":53.1607,"RA_OF_ASC_NODE":10.3269,"ARG_OF_PERICENTER":99.2822,"MEAN_ANOMALY":260.8294,"EPHEMERIS_TYPE":0,"CLASSIFICATION_TYPE":"U","NORAD_CAT_ID":65909,"ELEMENT_SET_NO":999,"REV_AT_EPOCH":2486,"BSTAR":0.0010077245,"MEAN_MOTION_DOT":0.00029612,"MEAN_MOTION_DDOT":0},{"OBJECT_NAME":"KUIPER-00226","OBJECT_ID":"2026-030X","EPOCH":"2026-03-09T15:01:51.726432","MEAN_MOTION":15.30655594,"ECCENTRICITY":0.0017713,"INCLINATION":51.8814,"RA_OF_ASC_NODE":220.1252,"ARG_OF_PERICENTER":64.2781,"MEAN_ANOMALY":296.003,"EPHEMERIS_TYPE":0,"CLASSIFICATION_TYPE":"U","NORAD_CAT_ID":67785,"ELEMENT_SET_NO":999,"REV_AT_EPOCH":507,"BSTAR":0.001553,"MEAN_MOTION_DOT":0.00046834,"MEAN_MOTION_DDOT":0}]
